STARLINK-1506           
1 45747U 20038T   26068.66028805  .00025380  00000+0  97997-3 0  9998
2 45747  53.0733 202.5028 0002514 227.7836 132.2949 15.26134655316688
STARLINK-32536          
1 61925U 24207P   26068.93435982  .00027970  00000+0  10205-2 0  9997
2 61925  43.0003 284.3214 0001924 274.1329  85.9303 15.27629720 74711
